[{"OBJECT_NAME":"STARLINK-2706","OBJECT_ID":"2021-040BF","EPOCH":"2026-03-09T16:03:18.093888","MEAN_MOTION":15.30190931,"ECCENTRICITY":0.00012725,"INCLINATION":53.1609,"RA_OF_ASC_NODE":193.6058,"ARG_OF_PERICENTER":70.4068,"MEAN_ANOMALY":289.707,"EPHEMERIS_TYPE":0,"CLASSIFICATION_TYPE":"U","NORAD_CAT_ID":48481,"ELEMENT_SET_NO":999,"REV_AT_EPOCH":26646,"BSTAR":-0.00011130998,"MEAN_MOTION_DOT":-3.653e-5,"MEAN_MOTION_DDOT":0},{"OBJECT_NAME":"SCS-01 M","OBJECT_ID":"2025-100M","EPOCH":"2026-03-09T23:50:15.541152","MEAN_MOTION":15.31880861,"ECCENTRICITY":0.00078021,"INCLINATION":97.3725,"RA_OF_ASC_NODE":145.6908,"ARG_OF_PERICENTER":292.3826,"MEAN_ANOMALY":67.6588,"EPHEMERIS_TYPE":0,"CLASSIFICATION_TYPE":"U","NORAD_CAT_ID":63993,"ELEMENT_SET_NO":999,"REV_AT_EPOCH":4565,"BSTAR":0.0012010051,"MEAN_MOTION_DOT":0.00037061,"MEAN_MOTION_DDOT":0}]
